NORAD_CAT_ID,OBJECT_NAME,OBJECT_TYPE,EPOCH,MEAN_MOTION,ECCENTRICITY,INCLINATION,RA_OF_ASC_NODE,ARG_OF_PERICENTER,MEAN_ANOMALY,BSTAR,MEAN_MOTION_DOT,MEAN_MOTION_DDOT,TLE_LINE0,TLE_LINE1,TLE_LINE2,SEMIMAJOR_AXIS,PERIOD,APOGEE,PERIGEE,DECAYED
54060.0,STARLINK-5169,PAYLOAD,2023-01-01 01:18:58,15.73195999,0.0003561,53.2154,148.5983,10.6897,349.4198,-7.952899999999999e-05,-0.00011772,0.0,0 STARLINK-5169,1 54060U 22136K   23001.05484505 -.00011772  00000-0 -79529-4 0  9992,2 54060  53.2154 148.5983 0003561  10.6897 349.4198 15.73195999 11920,6727.906999999997,91.533,352.167,347.376,0.0
54060.0,STARLINK-5169,PAYLOAD,2023-01-01 13:30:51,15.73166163,0.0004219999999999,53.2154,146.083,2.0948,358.0089,-0.00012123,-0.00017587,0.0,0 STARLINK-5169,1 54060U 22136K   23001.56309371 -.00017587  00000-0 -12123-3 0  9991,2 54060  53.2154 146.0830 0004220   2.0948 358.0089 15.73166163 12005,6727.9919999999975,91.535,352.696,347.017,0.0
54060.0,STARLINK-5169,PAYLOAD,2023-01-01 21:08:15,15.73169538,0.0003915,53.2156,144.5118,11.7274,348.3837,-5.8168e-05,-8.772e-05,0.0,0 STARLINK-5169,1 54060U 22136K   23001.88073486 -.00008772  00000-0 -58168-4 0  9997,2 54060  53.2156 144.5118 0003915  11.7274 348.3837 15.73169538 11571,6727.982,91.535,352.481,347.213,0.0
54060.0,STARLINK-5169,PAYLOAD,2023-01-02 15:26:01,15.73194012,0.0004229,53.2153,140.7393,4.1483,355.9571,4.8187e-05,6.144e-05,0.0,0 STARLINK-5169,1 54060U 22136K   23002.64307748  .00006144  00000-0  48187-4 0  9992,2 54060  53.2153 140.7393 0004229   4.1483 355.9571 15.73194012 12179,6727.9119999999975,91.534,352.622,346.932,0.0
54060.0,STARLINK-5169,PAYLOAD,2023-01-02 20:00:28,15.73210182,0.0004238,53.2155,139.796,6.0313,354.0757,8.986e-05,0.00012016,0.0,0 STARLINK-5169,1 54060U 22136K   23002.83366033  .00012016  00000-0  89860-4 0  9993,2 54060  53.2155 139.7960 0004238   6.0313 354.0757 15.73210182 11725,6727.866,91.533,352.582,346.88,0.0
54060.0,STARLINK-5169,PAYLOAD,2023-01-03 12:46:45,15.73198396,0.0004029,53.2161,136.3383,7.1846,352.9231,4.6518e-05,5.911e-05,0.0,0 STARLINK-5169,1 54060U 22136K   23003.53247483  .00005911  00000-0  46518-4 0  9997,2 54060  53.2161 136.3383 0004029   7.1846 352.9231 15.73198396 11833,6727.9,91.533,352.475,347.05400000000014,0.0
54060.0,STARLINK-5169,PAYLOAD,2023-01-03 17:21:13,15.73174816,0.0004437,53.2156,135.3949,6.9204,353.1877,-1.3395e-05,-2.504e-05,0.0,0 STARLINK-5169,1 54060U 22136K   23003.72306876 -.00002504  00000-0 -13395-4 0  9994,2 54060  53.2156 135.3949 0004437   6.9204 353.1877 15.73174816 12349,6727.967,91.535,352.81699999999995,346.847,0.0
54060.0,STARLINK-5169,PAYLOAD,2023-01-03 20:24:10,15.73184368,0.0005162,53.2161,134.7666,12.3008,347.8137,6.1564e-06,2.37e-06,0.0,0 STARLINK-5169,1 54060U 22136K   23003.85012487  .00000237  00000-0  61564-5 0  9991,2 54060  53.2161 134.7666 0005162  12.3008 347.8137 15.73184368 12367,6727.94,91.534,353.278,346.332,0.0
54060.0,STARLINK-5169,PAYLOAD,2023-01-04 14:41:54,15.73243375,0.0004561,53.2163,130.9939,6.2024,353.9052,4.3211e-05,5.457e-05,0.0,0 STARLINK-5169,1 54060U 22136K   23004.61243139  .00005457  00000-0  43211-4 0  9993,2 54060  53.2163 130.9939 0004561   6.2024 353.9052 15.73243375 12483,6727.772,91.531,352.705,346.5680000000001,0.0
54060.0,STARLINK-5169,PAYLOAD,2023-01-05 12:02:41,15.73071011,0.0006730999999999,53.216,126.5918,326.2,33.859,-0.00029018,-0.0004099,0.0,0 STARLINK-5169,1 54060U 22136K   23005.50187496 -.00040990  00000-0 -29018-3 0  9996,2 54060  53.2160 126.5918 0006731 326.2000  33.8590 15.73071011 12621,6728.263000000001,91.541,354.657,345.599,0.0
54060.0,STARLINK-5169,PAYLOAD,2023-01-05 18:08:55,15.7262675,0.0002842,53.2166,125.3372,351.5418,8.5554,-0.001186,-0.00160025,0.0,0 STARLINK-5169,1 54060U 22136K   23005.75619741 -.00160025  00000-0 -11860-2 0  9993,2 54060  53.2166 125.3372 0002842 351.5418   8.5554 15.72626750 12186,6729.53,91.567,353.30800000000005,349.482,0.0
54060.0,STARLINK-5169,PAYLOAD,2023-01-06 07:52:58,15.71933079,0.0004475,53.2161,122.5103,291.1539,68.9002,-0.002182,-0.00281467,0.0,0 STARLINK-5169,1 54060U 22136K   23006.32845920 -.00281467  00000-0 -21820-2 0  9998,2 54060  53.2161 122.5103 0004475 291.1539  68.9002 15.71933079 12754,6731.51,91.607,356.38699999999994,350.362,0.0
54060.0,STARLINK-5169,PAYLOAD,2023-01-06 13:59:24,15.7151907,0.0005303,53.2164,121.2552,289.0681,70.9764,-0.0027081,-0.0034086,0.0,0 STARLINK-5169,1 54060U 22136K   23006.58292404 -.00340860  00000-0 -27081-2 0  9997,2 54060  53.2164 121.2552 0005303 289.0681  70.9764 15.71519070 12799,6732.691999999999,91.631,358.1269999999999,350.987,0.0
54060.0,STARLINK-5169,PAYLOAD,2023-01-06 22:00:00,15.70051624,0.0003168,53.2173,119.6042,272.0273,176.364,-0.0083235,-0.00931875,0.0,0 STARLINK-5169,1 54060U 22136K   23006.91667824 -.00931875  00000-0 -83235-2 0  9991,2 54060  53.2173 119.6042 0003168 272.0273 176.3640 15.70051624 12845,6736.886,91.717,360.886,356.617,0.0
54060.0,STARLINK-5169,PAYLOAD,2023-01-07 06:00:00,15.69381133,0.0004474,53.2174,117.9625,260.6361,272.4968,-0.008272,-0.00890289,0.0,0 STARLINK-5169,1 54060U 22136K   23007.25001157 -.00890289  00000-0 -82720-2 0  9991,2 54060  53.2174 117.9625 0004474 260.6361 272.4968 15.69381133  1305,6738.805,91.756,363.685,357.655,0.0
54060.0,STARLINK-5169,PAYLOAD,2023-01-07 14:00:01,15.68730593,0.0006906,53.2174,116.325,269.9518,347.13,-0.0084652,-0.00888315,0.0,0 STARLINK-5169,1 54060U 22136K   23007.58334491 -.00888315  00000-0 -84652-2 0  9990,2 54060  53.2174 116.3250 0006906 269.9518 347.1300 15.68730593 12950,6740.6680000000015,91.794,367.1880000000001,357.8780000000001,0.0
54060.0,STARLINK-5169,PAYLOAD,2023-01-08 00:00:00,15.67926631,0.0007271,53.2173,114.2765,270.67,180.2478,-0.0089045,-0.00916219,0.0,0 STARLINK-5169,1 54060U 22136K   23008.00001157 -.00916219  00000-0 -89045-2 0  9994,2 54060  53.2173 114.2765 0007271 270.6700 180.2478 15.67926631  1303,6742.972,91.841,369.74,359.934,0.0
54060.0,STARLINK-5169,PAYLOAD,2023-01-08 06:00:00,15.67461533,0.0006462999999999,53.2171,113.0491,269.5583,153.0657,-0.0094377999999999,-0.00948971,0.0,0 STARLINK-5169,1 54060U 22136K   23008.25001157 -.00948971  00000-0 -94378-2 0  9996,2 54060  53.2171 113.0491 0006463 269.5583 153.0657 15.67461533 13059,6744.306,91.868,370.53,361.812,0.0
54060.0,STARLINK-5169,PAYLOAD,2023-01-08 14:00:01,15.66794971,0.0002622,53.2172,111.4163,273.011,231.2245,-0.0095005,-0.0092959,0.0,0 STARLINK-5169,1 54060U 22136K   23008.58334491 -.00929590  00000-0 -95005-2 0  9996,2 54060  53.2172 111.4163 0002622 273.0110 231.2245 15.66794971  1308,6746.218000000002,91.907,369.852,366.315,0.0
54060.0,STARLINK-5169,PAYLOAD,2023-01-08 22:00:00,15.66141068,7.670000000000001e-05,53.217,109.7824,354.3503,230.7088,-0.0096781,-0.0092223,0.0,0 STARLINK-5169,1 54060U 22136K   23008.91667824 -.00922230  00000-0 -96781-2 0  9998,2 54060  53.2170 109.7824 0000767 354.3503 230.7088 15.66141068  1309,6748.096,91.946,370.479,369.443,0.0
54060.0,STARLINK-5169,PAYLOAD,2023-01-09 08:00:01,15.65320076,0.0001413,53.2177,107.7417,40.7856,14.2693,-0.0098648,-0.00910654,0.0,0 STARLINK-5169,1 54060U 22136K   23009.33335648 -.00910654  00000-0 -98648-2 0  9992,2 54060  53.2177 107.7417 0001413  40.7856  14.2693 15.65320076 13226,6750.455,91.994,373.274,371.367,0.0
54060.0,STARLINK-5169,PAYLOAD,2023-01-09 14:00:01,15.64828928,0.0001159,53.2175,106.5216,68.8473,315.5124,-0.01002,-0.00907171,0.0,0 STARLINK-5169,1 54060U 22136K   23009.58334491 -.00907171  00000-0 -10020-1 0  9991,2 54060  53.2175 106.5216 0001159  68.8473 315.5124 15.64828928  1301,6751.868,92.023,374.515,372.95,0.0
54060.0,STARLINK-5169,PAYLOAD,2023-01-10 00:00:00,15.64020841,0.0001194,53.2174,104.4844,78.9105,133.41899999999998,-0.010431,-0.00913753,0.0,0 STARLINK-5169,1 54060U 22136K   23010.00001157 -.00913753  00000-0 -10431-1 0  9999,2 54060  53.2174 104.4844 0001194  78.9105 133.4190 15.64020841  1305,6754.193,92.07,376.865,375.252,0.0
54060.0,STARLINK-5169,PAYLOAD,2023-01-10 10:00:00,15.63205826,0.0001496999999999,53.2172,102.4519,40.0192,359.0603,-0.010754,-0.009123,0.0,0 STARLINK-5169,1 54060U 22136K   23010.41667824 -.00912300  00000-0 -10754-1 0  9998,2 54060  53.2172 102.4519 0001497  40.0192 359.0603 15.63205826 13396,6756.541,92.118,379.417,377.394,0.0
54060.0,STARLINK-5169,PAYLOAD,2023-01-10 14:00:01,15.62878604,0.0001514,53.2175,101.6409,45.4037,212.0333,-0.01086,-0.00909718,0.0,0 STARLINK-5169,1 54060U 22136K   23010.58334491 -.00909718  00000-0 -10860-1 0  9994,2 54060  53.2175 101.6409 0001514  45.4037 212.0333 15.62878604  1300,6757.484,92.138,380.372,378.326,0.0
54060.0,STARLINK-5169,PAYLOAD,2023-01-10 22:00:00,15.622018099999998,5.96e-05,53.2152,100.0224,67.1588,266.4595,-0.010823,-0.00884907,0.0,0 STARLINK-5169,1 54060U 22136K   23010.91667824 -.00884907  00000-0 -10823-1 0  9991,2 54060  53.2152 100.0224 0000596  67.1588 266.4595 15.62201810  1306,6759.435,92.178,381.703,380.897,0.0
54060.0,STARLINK-5169,PAYLOAD,2023-01-11 08:00:01,15.61414731,0.0001306,53.2174,97.9879,64.414,93.212,-0.011503,-0.00909779,0.0,0 STARLINK-5169,1 54060U 22136K   23011.33334491 -.00909779  00000-0 -11503-1 0  9990,2 54060  53.2174  97.9879 0001306  64.4140  93.2120 15.61414731 13539,6761.706999999999,92.224,384.455,382.689,0.0
54060.0,STARLINK-5169,PAYLOAD,2023-01-11 14:00:01,15.60925401,0.0001351999999999,53.2177,96.7746,59.6815,63.7936,-0.011706,-0.0090852,0.0,0 STARLINK-5169,1 54060U 22136K   23011.58334491 -.00908520  00000-0 -11706-1 0  9995,2 54060  53.2177  96.7746 0001352  59.6815  63.7936 15.60925401  1307,6763.12,92.253,385.899,384.07,0.0
54060.0,STARLINK-5169,PAYLOAD,2023-01-11 22:00:00,15.60278101,0.0001268,53.2174,95.1544,64.8599,132.3959,-0.012085,-0.00914151,0.0,0 STARLINK-5169,1 54060U 22136K   23011.91667824 -.00914151  00000-0 -12085-1 0  9999,2 54060  53.2174  95.1544 0001268  64.8599 132.3959 15.60278101  1302,6764.99,92.291,387.713,385.997,0.0
